[
  {
    "OBJECT_NAME": "2024-024C",
    "OBJECT_ID": "2024-024C",
    "EPOCH": "2024-02-04T09:07:11.924832",
    "MEAN_MOTION": 15.173662,
    "ECCENTRICITY": 0.0009209,
    "INCLINATION": 97.4059,
    "RA_OF_ASC_NODE": 112.8513,
    "ARG_OF_PERICENTER": 287.1996,
    "MEAN_ANOMALY": 204.0292,
    "EPHEMERIS_TYPE": 0,
    "CLASSIFICATION_TYPE": "U",
    "NORAD_CAT_ID": 58919,
    "ELEMENT_SET_NO": 999,
    "REV_AT_EPOCH": 18,
    "BSTAR": 0,
    "MEAN_MOTION_DOT": -6.6e-07,
    "MEAN_MOTION_DDOT": 0
  },
  {
    "OBJECT_NAME": "2024-024D",
    "OBJECT_ID": "2024-024D",
    "EPOCH": "2024-02-04T10:25:12.095328",
    "MEAN_MOTION": 15.17382741,
    "ECCENTRICITY": 0.000916,
    "INCLINATION": 97.4036,
    "RA_OF_ASC_NODE": 112.9062,
    "ARG_OF_PERICENTER": 286.6246,
    "MEAN_ANOMALY": 140.3207,
    "EPHEMERIS_TYPE": 0,
    "CLASSIFICATION_TYPE": "U",
    "NORAD_CAT_ID": 58920,
    "ELEMENT_SET_NO": 999,
    "REV_AT_EPOCH": 19,
    "BSTAR": 0.0012969,
    "MEAN_MOTION_DOT": 0.00025938,
    "MEAN_MOTION_DDOT": 0
  },
  {
    "OBJECT_NAME": "2024-024E",
    "OBJECT_ID": "2024-024E",
    "EPOCH": "2024-02-04T08:49:43.517856",
    "MEAN_MOTION": 15.17419628,
    "ECCENTRICITY": 0.0009414,
    "INCLINATION": 97.4071,
    "RA_OF_ASC_NODE": 112.8413,
    "ARG_OF_PERICENTER": 289.9943,
    "MEAN_ANOMALY": 135.17,
    "EPHEMERIS_TYPE": 0,
    "CLASSIFICATION_TYPE": "U",
    "NORAD_CAT_ID": 58921,
    "ELEMENT_SET_NO": 999,
    "REV_AT_EPOCH": 18,
    "BSTAR": 0.0012162,
    "MEAN_MOTION_DOT": 0.00024342,
    "MEAN_MOTION_DDOT": 0
  },
  {
    "OBJECT_NAME": "2024-024F",
    "OBJECT_ID": "2024-024F",
    "EPOCH": "2024-02-04T10:39:24.935904",
    "MEAN_MOTION": 15.17446545,
    "ECCENTRICITY": 0.0010049,
    "INCLINATION": 97.4008,
    "RA_OF_ASC_NODE": 112.9113,
    "ARG_OF_PERICENTER": 288.5954,
    "MEAN_ANOMALY": 192.5404,
    "EPHEMERIS_TYPE": 0,
    "CLASSIFICATION_TYPE": "U",
    "NORAD_CAT_ID": 58922,
    "ELEMENT_SET_NO": 999,
    "REV_AT_EPOCH": 19,
    "BSTAR": 0.0014592,
    "MEAN_MOTION_DOT": 0.00029265,
    "MEAN_MOTION_DDOT": 0
  },
  {
    "OBJECT_NAME": "2024-024G",
    "OBJECT_ID": "2024-024G",
    "EPOCH": "2024-02-04T10:39:08.716032",
    "MEAN_MOTION": 15.17528156,
    "ECCENTRICITY": 0.001022,
    "INCLINATION": 97.4002,
    "RA_OF_ASC_NODE": 112.912,
    "ARG_OF_PERICENTER": 290.3867,
    "MEAN_ANOMALY": 190.1185,
    "EPHEMERIS_TYPE": 0,
    "CLASSIFICATION_TYPE": "U",
    "NORAD_CAT_ID": 58923,
    "ELEMENT_SET_NO": 999,
    "REV_AT_EPOCH": 19,
    "BSTAR": 0.0011147,
    "MEAN_MOTION_DOT": 0.00022373,
    "MEAN_MOTION_DDOT": 0
  },
  {
    "OBJECT_NAME": "2024-024H",
    "OBJECT_ID": "2024-024H",
    "EPOCH": "2024-02-04T10:39:08.965728",
    "MEAN_MOTION": 15.17571012,
    "ECCENTRICITY": 0.0010435,
    "INCLINATION": 97.4067,
    "RA_OF_ASC_NODE": 112.9141,
    "ARG_OF_PERICENTER": 291.8215,
    "MEAN_ANOMALY": 188.8777,
    "EPHEMERIS_TYPE": 0,
    "CLASSIFICATION_TYPE": "U",
    "NORAD_CAT_ID": 58924,
    "ELEMENT_SET_NO": 999,
    "REV_AT_EPOCH": 3691,
    "BSTAR": 0.0010838,
    "MEAN_MOTION_DOT": 0.00021778,
    "MEAN_MOTION_DDOT": 0
  },
  {
    "OBJECT_NAME": "2024-024J",
    "OBJECT_ID": "2024-024J",
    "EPOCH": "2024-02-04T10:39:00.973728",
    "MEAN_MOTION": 15.17596824,
    "ECCENTRICITY": 0.0011165,
    "INCLINATION": 97.4064,
    "RA_OF_ASC_NODE": 112.9153,
    "ARG_OF_PERICENTER": 290.746,
    "MEAN_ANOMALY": 189.6653,
    "EPHEMERIS_TYPE": 0,
    "CLASSIFICATION_TYPE": "U",
    "NORAD_CAT_ID": 58925,
    "ELEMENT_SET_NO": 999,
    "REV_AT_EPOCH": 3690,
    "BSTAR": 0.0001,
    "MEAN_MOTION_DOT": 1.945e-05,
    "MEAN_MOTION_DDOT": 0
  },
  {
    "OBJECT_NAME": "2024-024K",
    "OBJECT_ID": "2024-024K",
    "EPOCH": "2024-02-04T09:52:07.002624",
    "MEAN_MOTION": 15.56478821,
    "ECCENTRICITY": 0.0274681,
    "INCLINATION": 97.432,
    "RA_OF_ASC_NODE": 112.9962,
    "ARG_OF_PERICENTER": 334.2704,
    "MEAN_ANOMALY": 146.7559,
    "EPHEMERIS_TYPE": 0,
    "CLASSIFICATION_TYPE": "U",
    "NORAD_CAT_ID": 58926,
    "ELEMENT_SET_NO": 999,
    "REV_AT_EPOCH": 3690,
    "BSTAR": 0,
    "MEAN_MOTION_DOT": -6.94e-06,
    "MEAN_MOTION_DDOT": 2.1915e-06
  }
]