2024-024C               
1 58919U 24024C   24035.37999913 -.00000066  00000+0  00000+0 0  9999
2 58919  97.4059 112.8513 0009209 287.1996 204.0292 15.17366200   180
2024-024D               
1 58920U 24024D   24035.43416777  .00025938  00000+0  12969-2 0  9994
2 58920  97.4036 112.9062 0009160 286.6246 140.3207 15.17382741   192
2024-024E               
1 58921U 24024E   24035.36786479  .00024342  00000+0  12162-2 0  9999
2 58921  97.4071 112.8413 0009414 289.9943 135.1700 15.17419628   187
2024-024F               
1 58922U 24024F   24035.44403861  .00029265  00000+0  14592-2 0  9998
2 58922  97.4008 112.9113 0010049 288.5954 192.5404 15.17446545   196
2024-024G               
1 58923U 24024G   24035.44385088  .00022373  00000+0  11147-2 0  9995
2 58923  97.4002 112.9120 0010220 290.3867 190.1185 15.17528156   193
2024-024H               
1 58924U 24024H   24035.44385377  .00021778  00000+0  10838-2 0  9991
2 58924  97.4067 112.9141 0010435 291.8215 188.8777 15.17571012 36918
2024-024J               
1 58925U 24024J   24035.44376127  .00001945  00000+0  10000-3 0  9991
2 58925  97.4064 112.9153 0011165 290.7460 189.6653 15.17596824 36909
2024-024K               
1 58926U 24024K   24035.41119216 -.00000694  21915-5  00000+0 0  9993
2 58926  97.4320 112.9962 0274681 334.2704 146.7559 15.56478821 36900
